#dP2025  1 15  0  0  0.00000000      96 __u+U IGS20 FIT  IAC
## 2349 259200.00000000   900.00000000 60690 0.0000000000000
+   52   G01G02G03G04G05G06G07G08G09G10G11G12G13G14G15G16G17
+        G18G19G20G21G22G23G24G25G26G27G28G29G30G31G32R01R02
+        R03R04R05R07R08R09R11R12R14R15R16R17R18R19R20R21R22
+        R24  0  0  0  0  0  0  0  0  0  0  0  0  0  0  0  0
+          0  0  0  0  0  0  0  0  0  0  0  0  0  0  0  0  0
++         7  6  6  7  5  5  7  6  7  7  6  7  6  6  6  6  7
++         6  7  5  6  6  7  6  7  6  7  6  9  6  6  7  8  5
++         7  6  8  7  7  6  6  6  7  7  7  7  7  7  7  6  6
++         5  0  0  0  0  0  0  0  0  0  0  0  0  0  0  0  0
++         0  0  0  0  0  0  0  0  0  0  0  0  0  0  0  0  0
%c M  cc GPS ccc cccc cccc cccc cccc ccccc ccccc ccccc ccccc
%c cc cc ccc ccc cccc cccc cccc cccc ccccc ccccc ccccc ccccc
%f  0.0000000  0.000000000  0.00000000000  0.000000000000000
%f  0.0000000  0.000000000  0.00000000000  0.000000000000000
%i    0    0    0    0      0      0      0      0         0
%i    0    0    0    0      0      0      0      0         0
/* INFORMATION & ANALYSIS CENTER (IAC)      ULTRA-RAPID DATA
/* S/V CLOCKS ARE ALIGNED TO GNSS TIME                      
/* G:C1WC2W R:C1PC2P E:C1XC5X C:C2IC6I J:C1CC2S             
/* PCV:IGS20_2317 OL/AL:FES2004  NONE     YN ORB:CoN CLK:CoN
*  2025 01 15 19 30  0.00000000
PG01  15728.959859 -21391.238739   -567.315921     51.095016
PG02  14310.881159 -21896.644793   3576.404828   -267.055065
PG03  13014.877178 -12331.890287 -19718.444933    646.648191
PG04   4130.091855 -19476.280522 -17484.427270    512.461900
PG05 -24433.613392   5834.583830   8555.942215   -199.121452
PG06 -12754.967609  -7088.967428 -22124.405414   -120.772973
PG07   2959.394551 -22689.264503  13635.509172    -13.496555
PG08  12124.838172  -9654.599030  21405.075373    461.537957
PG09  -4361.402510 -23810.059100 -10948.222169    529.989585
PG10  20070.105600  10514.617743  14363.830722   -278.219541
PG11 -18765.158770   4872.904071 -18086.120904   -751.595799
PG12 -16308.336742  10902.213973 -18177.237042   -564.650172
PG13 -15465.699562   -188.896014  21390.265634    693.578618
PG14 -16690.662949 -12952.389438  16287.159864    580.601751
PG15 -10342.643840  11790.266462  20903.676907    252.029876
PG16  26478.138748    931.810657   3700.796944    -77.050937
PG17 -12906.036839 -22707.794926  -3741.934607    472.709921
PG18  -1996.539483  21596.058528  15207.983596   -657.741784
PG19 -16436.828574 -16353.110195 -13481.150408    586.590323
PG20 -26176.627663    747.234915  -3912.615708    367.047515
PG21  16765.717423 -17450.398158   9887.210451    101.103279
PG22 -21958.437361 -10521.892435  10607.934875    -92.459525
PG23   5977.304573  14488.310467  21523.571259    404.517367
PG24 -14508.026307  21443.688478   4410.951508   -463.582843
PG25  -2105.523427  15562.400384 -21769.344056    496.690267
PG26  25349.186225   4549.960764  -7463.082555    -49.625849
PG27  17252.155807   2882.510673  19802.131103    -33.005905
PG28  12218.629716   9151.498941 -21749.586014   -536.212248
PG29   2296.348873  24168.367630 -10674.192502   -546.821144
PG30  -7226.449896 -16060.488895  19962.394634   -238.409246
PG31  17492.668882   -182.904651 -20330.787391   -217.801712
PG32  16409.000704  19427.573468  -7792.436899   -540.979740
PR01   2972.413715  15194.033432  20272.674570    111.362400
PR02  15526.130278  19023.073078   7089.453039    -38.437378
PR03  20070.813898  11699.171413 -10557.343872    114.982783
PR04  13197.929371  -1347.177784 -21758.808134    272.668235
PR05   -446.245121 -13906.789088 -21358.902889    143.795088
PR07 -19989.977169 -11381.301141  11009.180911     98.944807
PR08 -13040.422987   1877.567442  21897.511540     -6.368555
PR09  -7925.951945  -9047.496770  22516.652241    232.289394
PR11 -23976.807975   8605.768368  -1476.541492     -1.007616
PR12 -11496.975009  13098.193545 -18603.294204     49.647961
PR14  21578.381128   -216.597617 -13581.609478     27.595554
PR15  23528.052328  -9265.489056   3341.506296     72.166358
PR16  11616.977083 -13018.745215  18593.584315     32.489837
PR17  10074.529994   3685.948650  23154.300109    157.788037
PR18  11745.488403 -13357.702996  18279.863885    182.080244
PR19   9096.867394 -23080.742165   5940.288040   -305.629209
PR20  -1184.689786 -20669.978140 -14855.903258   -124.575586
PR21  -9559.715766  -5196.173595 -23067.010910   -168.461323
PR22 -12212.642029  14279.009748 -17229.344178    -56.123703
PR24   2786.588956  20360.344088  15124.686150    -88.327779
*  2025 01 15 19 45  0.00000000
PG01  15883.804299 -21162.049077   2284.556786     51.122470
PG02  14314.435367 -21312.790604   6390.831663   -267.046989
PG03  15148.786674 -12193.847145 -18199.799797    646.654758
PG04   5210.287385 -17672.856221 -19053.621783    512.467188
PG05 -25281.761560   5660.766485   5836.832768   -199.122832
PG06 -11410.830846  -9239.761021 -22053.940686   -120.796903
PG07   3873.875722 -23736.798999  11293.890098    -13.496233
PG08  13445.551673  -7545.400670  21503.880995    461.544995
PG09  -3474.461239 -22734.081378 -13321.761510    530.003067
PG10  18360.201845  10587.844018  16449.557911   -278.233820
PG11 -17680.197054   3000.174641 -19531.119010   -751.594812
PG12 -18220.210446  10591.634535 -16429.284687   -564.652225
PG13 -16294.562253  -2491.292892  20646.900275    693.579974
PG14 -14736.889194 -13054.339950  17984.502725    580.608217
PG15 -11928.123203   9829.519980  21080.941085    252.034247
PG16  26752.545006   1184.814104    888.740006    -77.042437
PG17 -12808.094624 -23099.984498   -879.959235    472.693997
PG18  -3000.619152  22872.747532  12992.156938   -657.740550
PG19 -16823.748288 -17681.930982 -11132.824603    586.594460
PG20 -25611.354051    378.174489  -6680.751684    367.047121
PG21  16484.338262 -16187.657535  12393.027163    101.103951
PG22 -20632.052437 -10615.008279  13020.403627    -92.461132
PG23   3505.169512  14541.786099  22007.327875    404.524116
PG24 -14524.985233  20637.055876   7128.679965   -463.579241
PG25  -4505.880553  15532.160171 -21393.819084    496.689763
PG26  24402.298131   4902.646943  -9990.725021    -49.639703
PG27  18273.823757   4878.784924  18510.570741    -33.005385
PG28  10995.045086  11291.847785 -21393.227258   -536.220824
PG29   1540.669039  23024.167196 -13088.607836   -546.818076
PG30  -5977.686410 -17880.078449  18759.664859   -238.401590
PG31  16316.588783   1817.508271 -21188.253542   -217.800960
PG32  16592.182471  20196.849915  -5068.974532   -540.973342
PR01   1000.604912  13522.980537  21606.567541    111.363750
PR02  14847.180201  18202.409498  10080.407254    -38.437167
PR03  21028.821464  12312.325677  -7599.557572    114.983470
PR04  15212.425653    318.984165 -20446.962355    272.669733
PR05   1544.273306 -12072.695537 -22399.335248    143.795937
PR07 -20978.410270 -12030.815948   8072.268858     98.946523
PR08 -15064.164318    225.206863  20635.030182     -6.368792
PR09  -5323.461420 -10059.822231  22843.611905    232.291921
PR11 -23912.826007   8736.877899   1732.707496     -1.010054
PR12 -13513.255475  13910.375533 -16545.433657     49.648662
PR14  19834.620748    335.906705 -16019.698251     27.594979
PR15  23686.807812  -9456.549000    148.055914     72.165723
PR16  13622.213846 -13847.444758  16514.997091     32.490166
PR17   9561.044739   6471.087023  22754.437438    157.791262
PR18  11158.420086 -11060.725927  20097.826657    182.081825
PR19   8682.268147 -22230.674864   9011.490843   -305.629576
PR20   -959.711217 -22341.065720 -12218.331969   -124.575050
PR21  -9037.631249  -7962.149371 -22483.195137   -168.464383
PR22 -11626.063439  12102.360008 -19185.772144    -56.125478
PR24   2586.297953  22057.733162  12557.718565    -88.329142
EOF
